{
  "fetched_at": "2026-07-16T01:26:57.456599+00:00",
  "satellites": {
    "57166": {
      "name": "Meteor M2-3",
      "tle_line1": "1 57166U 23091A   26196.83572444 -.00000014  00000+0  12639-4 0  9991",
      "tle_line2": "2 57166  98.6068 251.2255 0005146  88.8384 271.3385 14.24048956158591"
    },
    "59051": {
      "name": "Meteor M2-4",
      "tle_line1": "1 59051U 24039A   26196.88294855 -.00000016  00000+0  12294-4 0  9990",
      "tle_line2": "2 59051  98.7026 155.8228 0008257  87.0604 273.1519 14.22432183123343"
    },
    "38771": {
      "name": "MetOp-B",
      "tle_line1": "1 38771U 12049A   26196.76830693  .00000050  00000+0  42600-4 0  9998",
      "tle_line2": "2 38771  98.6490 247.6951 0001093 252.2026 107.9032 14.21446519717329"
    },
    "43689": {
      "name": "MetOp-C",
      "tle_line1": "1 43689U 18087A   26196.57486992  .00000053  00000+0  44045-4 0  9996",
      "tle_line2": "2 43689  98.6630 255.6574 0002216  93.2289 266.9142 14.21519167398863"
    },
    "60543": {
      "name": "Arctic Weather Satellite",
      "tle_line1": "1 60543U 24149CD  26196.16127421  .00000364  00000+0  43508-4 0  9992",
      "tle_line2": "2 60543  97.6791 265.8257 0002804  50.4256 309.7209 14.89803530103465"
    }
  }
}